{"type": "FeatureCollection", "features": [{"type": "Feature", "properties": {"norad_id": 28054, "name": "DMSP 5D-3 F16 (USA 172)", "group": "weather", "lat": -28.409117167334674, "lon": 170.9236586837898, "alt_km": 853.7133590541043, "timestamp": "2025-12-04T10:51:49.749156+00:00", "meta": {"OBJECT_NAME": "DMSP 5D-3 F16 (USA 172)", "OBJECT_ID": "2003-048A", "EPOCH": "2025-12-03T22:18:37.497888", "MEAN_MOTION": 14.14419405, "ECCENTRICITY": 0.00068672, "INCLINATION": 99.0052, "RA_OF_ASC_NODE": 355.3171, "ARG_OF_PERICENTER": 347.7086, "MEAN_ANOMALY": 79.1467, "EPHEMERIS_TYPE": 0, "CLASSIFICATION_TYPE": "U", "NORAD_CAT_ID": 28054, "ELEMENT_SET_NO": 999, "REV_AT_EPOCH": 14188, "BSTAR": 0.00016796968, "MEAN_MOTION_DOT": 2.76e-06, "MEAN_MOTION_DDOT": 0}, "tle": {"line1": "1 28054U 03048A   25337.92960067  .00000276  00000+0  16797-3 0  9990", "line2": "2 28054  99.0052 355.3171 0006867 347.7086  79.1467 14.14419405141882"}}, "geometry": {"type": "Point", "coordinates": [170.9236586837898, -28.409117167334674]}}, {"type": "Feature", "properties": {"norad_id": 28912, "name": "METEOSAT-9 (MSG-2)", "group": "weather", "lat": -6.4301351344258855, "lon": -78.24296537231365, "alt_km": 35774.048004463744, "timestamp": "2025-12-04T10:51:49.749204+00:00", "meta": {"OBJECT_NAME": "METEOSAT-9 (MSG-2)", "OBJECT_ID": "2005-049B", "EPOCH": "2025-12-02T20:50:55.807872", "MEAN_MOTION": 1.00271253, "ECCENTRICITY": 0.00040042, "INCLINATION": 8.9157, "RA_OF_ASC_NODE": 56.0648, "ARG_OF_PERICENTER": 185.08, "MEAN_ANOMALY": 189.154, "EPHEMERIS_TYPE": 0, "CLASSIFICATION_TYPE": "U", "NORAD_CAT_ID": 28912, "ELEMENT_SET_NO": 999, "REV_AT_EPOCH": 503, "BSTAR": 0, "MEAN_MOTION_DOT": 1.39e-06, "MEAN_MOTION_DDOT": 0}, "tle": {"line1": "1 28912U 05049B   25336.86870148  .00000139  00000+0  00000+0 0  9992", "line2": "2 28912   8.9157  56.0648 0004004 185.0800 189.1540  1.00271253  5030"}}, "geometry": {"type": "Point", "coordinates": [-78.24296537231365, -6.4301351344258855]}}, {"type": "Feature", "properties": {"norad_id": 29522, "name": "DMSP 5D-3 F17 (USA 191)", "group": "weather", "lat": 44.78090595918932, "lon": 172.79483774253217, "alt_km": 841.6796435679271, "timestamp": "2025-12-04T10:51:49.749222+00:00", "meta": {"OBJECT_NAME": "DMSP 5D-3 F17 (USA 191)", "OBJECT_ID": "2006-050A", "EPOCH": "2025-12-03T22:20:57.653376", "MEAN_MOTION": 14.14913792, "ECCENTRICITY": 0.00091686, "INCLINATION": 98.7394, "RA_OF_ASC_NODE": 343.5037, "ARG_OF_PERICENTER": 252.4546, "MEAN_ANOMALY": 107.5626, "EPHEMERIS_TYPE": 0, "CLASSIFICATION_TYPE": "U", "NORAD_CAT_ID": 29522, "ELEMENT_SET_NO": 999, "REV_AT_EPOCH": 98480, "BSTAR": 0.00020634785, "MEAN_MOTION_DOT": 3.55e-06, "MEAN_MOTION_DDOT": 0}, "tle": {"line1": "1 29522U 06050A   25337.93122284  .00000355  00000+0  20635-3 0  9993", "line2": "2 29522  98.7394 343.5037 0009168 252.4546 107.5626 14.14913792984806"}}, "geometry": {"type": "Point", "coordinates": [172.79483774253217, 44.78090595918932]}}, {"type": "Feature", "properties": {"norad_id": 32958, "name": "FENGYUN 3A", "group": "weather", "lat": 69.86976472273457, "lon": -106.4396700589773, "alt_km": 820.7991706446664, "timestamp": "2025-12-04T10:51:49.749236+00:00", "meta": {"OBJECT_NAME": "FENGYUN 3A", "OBJECT_ID": "2008-026A", "EPOCH": "2025-12-03T17:36:37.752192", "MEAN_MOTION": 14.19509764, "ECCENTRICITY": 0.00083403, "INCLINATION": 98.6682, "RA_OF_ASC_NODE": 277.4507, "ARG_OF_PERICENTER": 338.2034, "MEAN_ANOMALY": 21.8787, "EPHEMERIS_TYPE": 0, "CLASSIFICATION_TYPE": "U", "NORAD_CAT_ID": 32958, "ELEMENT_SET_NO": 999, "REV_AT_EPOCH": 90767, "BSTAR": 0.0001067732, "MEAN_MOTION_DOT": 1.82e-06, "MEAN_MOTION_DDOT": 0}, "tle": {"line1": "1 32958U 08026A   25337.73377028  .00000182  00000+0  10677-3 0  9994", "line2": "2 32958  98.6682 277.4507 0008340 338.2034  21.8787 14.19509764907676"}}, "geometry": {"type": "Point", "coordinates": [-106.4396700589773, 69.86976472273457]}}, {"type": "Feature", "properties": {"norad_id": 35491, "name": "GOES 14", "group": "weather", "lat": 0.8037024593385973, "lon": 128.07936583592445, "alt_km": 35791.39577040785, "timestamp": "2025-12-04T10:51:49.749251+00:00", "meta": {"OBJECT_NAME": "GOES 14", "OBJECT_ID": "2009-033A", "EPOCH": "2025-12-04T01:13:34.696128", "MEAN_MOTION": 1.00272678, "ECCENTRICITY": 0.0004191, "INCLINATION": 1.175, "RA_OF_ASC_NODE": 85.5088, "ARG_OF_PERICENTER": 151.0612, "MEAN_ANOMALY": 106.6209, "EPHEMERIS_TYPE": 0, "CLASSIFICATION_TYPE": "U", "NORAD_CAT_ID": 35491, "ELEMENT_SET_NO": 999, "REV_AT_EPOCH": 463, "BSTAR": 0, "MEAN_MOTION_DOT": -5.2e-07, "MEAN_MOTION_DDOT": 0}, "tle": {"line1": "1 35491U 09033A   25338.05109602 -.00000052  00000+0  00000+0 0  9997", "line2": "2 35491   1.1750  85.5088 0004191 151.0612 106.6209  1.00272678  4633"}}, "geometry": {"type": "Point", "coordinates": [128.07936583592445, 0.8037024593385973]}}, {"type": "Feature", "properties": {"norad_id": 35951, "name": "DMSP 5D-3 F18 (USA 210)", "group": "weather", "lat": 6.049833351066386, "lon": -46.054336441796345, "alt_km": 843.3708122612479, "timestamp": "2025-12-04T10:51:49.749284+00:00", "meta": {"OBJECT_NAME": "DMSP 5D-3 F18 (USA 210)", "OBJECT_ID": "2009-057A", "EPOCH": "2025-12-04T04:02:44.111040", "MEAN_MOTION": 14.14761698, "ECCENTRICITY": 0.0012118, "INCLINATION": 98.8824, "RA_OF_ASC_NODE": 314.6127, "ARG_OF_PERICENTER": 85.041, "MEAN_ANOMALY": 275.2146, "EPHEMERIS_TYPE": 0, "CLASSIFICATION_TYPE": "U", "NORAD_CAT_ID": 35951, "ELEMENT_SET_NO": 999, "REV_AT_EPOCH": 83201, "BSTAR": 0.00026693, "MEAN_MOTION_DOT": 4.7e-06, "MEAN_MOTION_DDOT": 0}, "tle": {"line1": "1 35951U 09057A   25338.16856610  .00000470  00000+0  26693-3 0  9997", "line2": "2 35951  98.8824 314.6127 0012118  85.0410 275.2146 14.14761698832017"}}, "geometry": {"type": "Point", "coordinates": [-46.054336441796345, 6.049833351066386]}}, {"type": "Feature", "properties": {"norad_id": 36411, "name": "EWS-G2 (GOES 15)", "group": "weather", "lat": -0.43105893174258736, "lon": -62.00538608627267, "alt_km": 35768.28683650544, "timestamp": "2025-12-04T10:51:49.749298+00:00", "meta": {"OBJECT_NAME": "EWS-G2 (GOES 15)", "OBJECT_ID": "2010-008A", "EPOCH": "2025-12-04T02:02:00.056832", "MEAN_MOTION": 1.00267832, "ECCENTRICITY": 0.0005992, "INCLINATION": 0.7908, "RA_OF_ASC_NODE": 86.0514, "ARG_OF_PERICENTER": 170.1785, "MEAN_ANOMALY": 268.9265, "EPHEMERIS_TYPE": 0, "CLASSIFICATION_TYPE": "U", "NORAD_CAT_ID": 36411, "ELEMENT_SET_NO": 999, "REV_AT_EPOCH": 5768, "BSTAR": 0, "MEAN_MOTION_DOT": 5.4e-07, "MEAN_MOTION_DDOT": 0}, "tle": {"line1": "1 36411U 10008A   25338.08472288  .00000054  00000+0  00000+0 0  9991", "line2": "2 36411   0.7908  86.0514 0005992 170.1785 268.9265  1.00267832 57682"}}, "geometry": {"type": "Point", "coordinates": [-62.00538608627267, -0.43105893174258736]}}, {"type": "Feature", "properties": {"norad_id": 36744, "name": "COMS 1", "group": "weather", "lat": -4.125963161145693, "lon": 4.6911886894463874, "alt_km": 35788.15912511676, "timestamp": "2025-12-04T10:51:49.749312+00:00", "meta": {"OBJECT_NAME": "COMS 1", "OBJECT_ID": "2010-032A", "EPOCH": "2025-12-03T21:44:51.671040", "MEAN_MOTION": 1.00269853, "ECCENTRICITY": 0.0001109, "INCLINATION": 4.3185, "RA_OF_ASC_NODE": 78.0956, "ARG_OF_PERICENTER": 185.4543, "MEAN_ANOMALY": 263.8216, "EPHEMERIS_TYPE": 0, "CLASSIFICATION_TYPE": "U", "NORAD_CAT_ID": 36744, "ELEMENT_SET_NO": 999, "REV_AT_EPOCH": 4913, "BSTAR": 0, "MEAN_MOTION_DOT": -3.29e-06, "MEAN_MOTION_DDOT": 0}, "tle": {"line1": "1 36744U 10032A   25337.90615360 -.00000329  00000+0  00000+0 0  9993", "line2": "2 36744   4.3185  78.0956 0001109 185.4543 263.8216  1.00269853 49132"}}, "geometry": {"type": "Point", "coordinates": [4.6911886894463874, -4.125963161145693]}}, {"type": "Feature", "properties": {"norad_id": 37214, "name": "FENGYUN 3B", "group": "weather", "lat": -29.7164257211223, "lon": 23.557004373476854, "alt_km": 838.7191576887626, "timestamp": "2025-12-04T10:51:49.749324+00:00", "meta": {"OBJECT_NAME": "FENGYUN 3B", "OBJECT_ID": "2010-059A", "EPOCH": "2025-12-04T04:37:08.063616", "MEAN_MOTION": 14.14786117, "ECCENTRICITY": 0.0022414, "INCLINATION": 98.992, "RA_OF_ASC_NODE": 18.1097, "ARG_OF_PERICENTER": 21.8555, "MEAN_ANOMALY": 63.7807, "EPHEMERIS_TYPE": 0, "CLASSIFICATION_TYPE": "U", "NORAD_CAT_ID": 37214, "ELEMENT_SET_NO": 999, "REV_AT_EPOCH": 77985, "BSTAR": 0.00013184, "MEAN_MOTION_DOT": 2.09e-06, "MEAN_MOTION_DDOT": 0}, "tle": {"line1": "1 37214U 10059A   25338.19245444  .00000209  00000+0  13184-3 0  9996", "line2": "2 37214  98.9920  18.1097 0022414  21.8555  63.7807 14.14786117779858"}}, "geometry": {"type": "Point", "coordinates": [23.557004373476854, -29.7164257211223]}}, {"type": "Feature", "properties": {"norad_id": 37849, "name": "SUOMI NPP", "group": "weather", "lat": 29.859688976139598, "lon": -89.21852178982837, "alt_km": 825.786518605627, "timestamp": "2025-12-04T10:51:49.749335+00:00", "meta": {"OBJECT_NAME": "SUOMI NPP", "OBJECT_ID": "2011-061A", "EPOCH": "2025-12-04T03:57:18.153216", "MEAN_MOTION": 14.19510497, "ECCENTRICITY": 0.0001925, "INCLINATION": 98.776, "RA_OF_ASC_NODE": 275.5842, "ARG_OF_PERICENTER": 135.6897, "MEAN_ANOMALY": 224.4433, "EPHEMERIS_TYPE": 0, "CLASSIFICATION_TYPE": "U", "NORAD_CAT_ID": 37849, "ELEMENT_SET_NO": 999, "REV_AT_EPOCH": 73077, "BSTAR": 0.00012225, "MEAN_MOTION_DOT": 2.13e-06, "MEAN_MOTION_DDOT": 0}, "tle": {"line1": "1 37849U 11061A   25338.16479344  .00000213  00000+0  12225-3 0  9999", "line2": "2 37849  98.7760 275.5842 0001925 135.6897 224.4433 14.19510497730776"}}, "geometry": {"type": "Point", "coordinates": [-89.21852178982837, 29.859688976139598]}}]}